{
    "links": {
        "self": "http://www.neowsapp.com/rest/v1/neo/3856730?api_key=iIulBulltgU6a56xZRHN4H3l9WmuAYTsLGpBGhQ2"
    },
    "id": "3856730",
    "neo_reference_id": "3856730",
    "name": "(2019 SX4)",
    "designation": "2019 SX4",
    "nasa_jpl_url": "http://ssd.jpl.nasa.gov/sbdb.cgi?sstr=3856730",
    "absolute_magnitude_h": 24.2,
    "estimated_diameter": {
        "kilometers": {
            "estimated_diameter_min": 0.0384197891,
            "estimated_diameter_max": 0.0859092601
        },
        "meters": {
            "estimated_diameter_min": 38.4197891064,
            "estimated_diameter_max": 85.9092601232
        },
        "miles": {
            "estimated_diameter_min": 0.0238729428,
            "estimated_diameter_max": 0.0533815229
        },
        "feet": {
            "estimated_diameter_min": 126.0491808919,
            "estimated_diameter_max": 281.8545369825
        }
    },
    "is_potentially_hazardous_asteroid": false,
    "close_approach_data": [
        {
            "close_approach_date": "2019-10-04",
            "close_approach_date_full": "2019-Oct-04 12:06",
            "epoch_date_close_approach": 1570190760000,
            "relative_velocity": {
                "kilometers_per_second": "15.5961790665",
                "kilometers_per_hour": "56146.244639359",
                "miles_per_hour": "34887.0929538283"
            },
            "miss_distance": {
                "astronomical": "0.1238842115",
                "lunar": "48.1909582735",
                "kilometers": "18532814.167029505",
                "miles": "11515756.730656969"
            },
            "orbiting_body": "Earth"
        },
        {
            "close_approach_date": "2020-02-22",
            "close_approach_date_full": "2020-Feb-22 17:12",
            "epoch_date_close_approach": 1582391520000,
            "relative_velocity": {
                "kilometers_per_second": "14.4696711081",
                "kilometers_per_hour": "52090.8159892406",
                "miles_per_hour": "32367.207301759"
            },
            "miss_distance": {
                "astronomical": "0.4679826586",
                "lunar": "182.0452541954",
                "kilometers": "70009208.923497182",
                "miles": "43501705.2241858316"
            },
            "orbiting_body": "Earth"
        }
    ],
    "orbital_data": {
        "orbit_id": "1",
        "orbit_determination_date": "2019-09-27 17:42:03",
        "first_observation_date": "2019-09-25",
        "last_observation_date": "2019-09-27",
        "data_arc_in_days": 2,
        "observations_used": 15,
        "orbit_uncertainty": "9",
        "minimum_orbit_intersection": ".11852",
        "jupiter_tisserand_invariant": "4.633",
        "epoch_osculation": "2458752.5",
        "eccentricity": ".2515732287149627",
        "semi_major_axis": "1.386982276215029",
        "inclination": "28.14754343421495",
        "ascending_node_longitude": "7.622917798215489",
        "orbital_period": "596.6295975116535",
        "perihelion_distance": "1.038054666817186",
        "perihelion_argument": "52.54317486982169",
        "aphelion_distance": "1.735909885612872",
        "perihelion_time": "2458808.032173414110",
        "mean_anomaly": "326.4924728634685",
        "mean_motion": ".603389442128654",
        "equinox": "J2000",
        "orbit_class": {
            "orbit_class_type": "AMO",
            "orbit_class_description": "Near-Earth asteroid orbits similar to that of 1221 Amor",
            "orbit_class_range": "1.017 AU < q (perihelion) < 1.3 AU"
        }
    },
    "is_sentry_object": false
}